STARLINK-35096          
1 65479U 25195X   26167.20140144  .00013660  00000+0  45094-3 0  9991
2 65479  53.1581 160.0775 0001330 107.0119 253.1028 15.31715536 45061
STARLINK-35040          
1 65480U 25195Y   26167.16100399  .00027232  00000+0  81393-3 0  9998
2 65480  53.1582 159.8007 0001174 104.5808 255.5325 15.34410292 45061
STARLINK-35042          
1 65481U 25195Z   26167.17363144  .00021247  00000+0  63814-3 0  9997
2 65481  53.1579 159.9034 0001767  97.3389 262.7814 15.34402154 45061
STARLINK-35038          
1 65482U 25195AA  26167.15679818  .00021777  00000+0  65374-3 0  9995
2 65482  53.1577 159.7785 0001274  88.8944 271.2205 15.34402015 45061
STARLINK-35037          
1 65483U 25195AB  26167.18835582  .00034780  00000+0  10353-2 0  9995
2 65483  53.1587 159.9721 0001229 102.9229 257.1911 15.34412693 45069
STARLINK-35089          
1 65484U 25195AC  26167.15258778  .00018678  00000+0  56267-3 0  9992
2 65484  53.1570 159.7524 0001060  99.0602 261.0520 15.34392799 45069
STARLINK-35143          
1 65485U 25195AD  26167.14548638  .00002720  00000+0  99387-4 0  9991
2 65485  53.1575 160.4170 0001131  85.4022 274.7108 15.31698125 45056
STARLINK-35226          
1 65492U 25198A   26167.18209691  .00016363  00000+0  49455-3 0  9997
2 65492  53.1568 171.8150 0001317 101.9095 258.2055 15.34386925 43725
STARLINK-35242          
1 65493U 25198B   26167.16946993  .00017014  00000+0  51352-3 0  9992
2 65493  53.1576 171.7461 0001601 114.0321 246.0849 15.34401170 43728
STARLINK-35223          
1 65494U 25198C   26167.20314815  .00020542  00000+0  61754-3 0  9997
2 65494  53.1589 171.9430 0001401  98.3596 261.7565 15.34394769 43721
STARLINK-34446          
1 65495U 25198D   26167.15762381  .00005145  00000+0  18573-3 0  9990
2 65495  53.1583 173.7909 0001317 107.0658 253.0487 15.30195041 43691
STARLINK-35212          
1 65496U 25198E   26166.76045395  .00015579  00000+0  53674-3 0  9999
2 65496  53.1585 175.5731 0001483  81.7872 278.3297 15.30216747 43637
STARLINK-34455          
1 65497U 25198F   26167.19682105  .00019595  00000+0  58963-3 0  9992
2 65497  53.1569 171.9058 0001238  98.1480 261.9663 15.34395941 43720
STARLINK-35203          
1 65498U 25198G   26167.16668980 -.00020498  00000+0 -61307-3 0  9997
2 65498  53.1577 173.8225 0000871  73.8022 298.8804 15.33577690  5705
STARLINK-35166          
1 65499U 25198H   26167.16668980 -.00018385  00000+0 -53449-3 0  9998
2 65499  53.1595 173.8114 0001878  95.0982 281.3858 15.34388338  5708
STARLINK-35207          
1 65500U 25198J   26167.16668980 -.00005722  00000+0 -16282-3 0  9996
2 65500  53.1600 173.6935 0001903  79.0739 356.1918 15.33538561  5913
STARLINK-35140          
1 65501U 25198K   26167.17788874  .00015005  00000+0  45423-3 0  9995
2 65501  53.1559 171.7897 0001292 107.1749 252.9395 15.34407905 43729
STARLINK-35114          
1 65502U 25198L   26166.36898855  .00025139  00000+0  75331-3 0  9997
2 65502  53.1576 175.9866 0001763  96.8806 263.2397 15.34372378 43599
STARLINK-35126          
1 65503U 25198M   26166.75939038  .00013684  00000+0  47328-3 0  9997
2 65503  53.1581 175.5696 0001435  70.2171 289.8985 15.30199548 43634
STARLINK-35182          
1 65504U 25198N   26167.15483042  .00016669  00000+0  50336-3 0  9991
2 65504  53.1575 172.3509 0001426 124.4059 235.7078 15.34400190 43717
STARLINK-35072          
1 65505U 25198P   26167.18630241  .00018761  00000+0  56495-3 0  9997
2 65505  53.1569 171.8367 0001654  64.4684 295.6490 15.34402588 43724
STARLINK-35184          
1 65506U 25198Q   26167.20102762  .00015991  00000+0  48341-3 0  9996
2 65506  53.1589 171.9256 0001381 119.5294 240.5846 15.34398722 43729
STARLINK-35163          
1 65507U 25198R   26167.16373201  .00146992  00000+0  47957-2 0  9997
2 65507  53.1578 173.8254 0013099  77.3601 282.8864 15.30678222 43696
STARLINK-35119          
1 65508U 25198S   26167.16114083  .00017636  00000+0  53184-3 0  9991
2 65508  53.1575 172.3950 0001244  93.2099 266.9046 15.34401512 43716
STARLINK-35168          
1 65509U 25198T   26166.23240343  .00018616  00000+0  56074-3 0  9998
2 65509  53.1583 176.5533 0002152 136.0816 224.0358 15.34399544 43577
STARLINK-35122          
1 65510U 25198U   26167.18419910  .00017072  00000+0  51543-3 0  9994
2 65510  53.1568 171.8244 0001044  97.2433 262.8689 15.34388102 43723
STARLINK-35124          
1 65511U 25198V   26167.17159125  .00018347  00000+0  55305-3 0  9999
2 65511  53.1555 171.7476 0001146 107.6262 252.4866 15.34385797 43713
STARLINK-35149          
1 65512U 25198W   26166.36056738  .00015414  00000+0  46627-3 0  9995
2 65512  53.1583 175.9263 0001499  80.9978 279.1194 15.34408362 43593
STARLINK-35019          
1 65513U 25198X   26166.75770167  .00021907  00000+0  65780-3 0  9993
2 65513  53.1583 174.1396 0001606  79.3499 280.7684 15.34391123 43657
STARLINK-35026          
1 65514U 25198Y   26167.16668980 -.00021682  00000+0 -63226-3 0  9994
2 65514  53.1587 173.7394 0000738  81.0490 330.2828 15.34408082  5709
