OBJECT_NAME,OBJECT_ID,EPOCH,MEAN_MOTION,ECCENTRICITY,INCLINATION,RA_OF_ASC_NODE,ARG_OF_PERICENTER,MEAN_ANOMALY,EPHEMERIS_TYPE,CLASSIFICATION_TYPE,NORAD_CAT_ID,ELEMENT_SET_NO,REV_AT_EPOCH,BSTAR,MEAN_MOTION_DOT,MEAN_MOTION_DDOT
STARLINK-35096,2025-195X,2026-06-16T04:50:01.084416,15.31715536,.000133,53.1581,160.0775,107.0119,253.1028,0,U,65479,999,4506,.45094E-3,.1366E-3,0
STARLINK-35040,2025-195Y,2026-06-16T03:51:50.744736,15.34410292,.0001174,53.1582,159.8007,104.5808,255.5325,0,U,65480,999,4506,.81393E-3,.27232E-3,0
STARLINK-35042,2025-195Z,2026-06-16T04:10:01.756416,15.34402154,.0001767,53.1579,159.9034,97.3389,262.7814,0,U,65481,999,4506,.63814E-3,.21247E-3,0
STARLINK-35038,2025-195AA,2026-06-16T03:45:47.362752,15.34402015,.0001274,53.1577,159.7785,88.8944,271.2205,0,U,65482,999,4506,.65374E-3,.21777E-3,0
STARLINK-35037,2025-195AB,2026-06-16T04:31:13.942848,15.34412693,.0001229,53.1587,159.9721,102.9229,257.1911,0,U,65483,999,4506,.10353E-2,.3478E-3,0
STARLINK-35089,2025-195AC,2026-06-16T03:39:43.584192,15.34392799,.000106,53.1570,159.7524,99.0602,261.0520,0,U,65484,999,4506,.56267E-3,.18678E-3,0
STARLINK-35143,2025-195AD,2026-06-16T03:29:30.023232,15.31698125,.0001131,53.1575,160.4170,85.4022,274.7108,0,U,65485,999,4505,.99387E-4,.272E-4,0
STARLINK-35226,2025-198A,2026-06-16T04:22:13.173024,15.34386925,.0001317,53.1568,171.8150,101.9095,258.2055,0,U,65492,999,4372,.49455E-3,.16363E-3,0
STARLINK-35242,2025-198B,2026-06-16T04:04:02.201952,15.34401170,.0001601,53.1576,171.7461,114.0321,246.0849,0,U,65493,999,4372,.51352E-3,.17014E-3,0
STARLINK-35223,2025-198C,2026-06-16T04:52:32.000160,15.34394769,.0001401,53.1589,171.9430,98.3596,261.7565,0,U,65494,999,4372,.61754E-3,.20542E-3,0
STARLINK-34446,2025-198D,2026-06-16T03:46:58.697184,15.30195041,.0001317,53.1583,173.7909,107.0658,253.0487,0,U,65495,999,4369,.18573E-3,.5145E-4,0
STARLINK-35212,2025-198E,2026-06-15T18:15:03.221280,15.30216747,.00014835,53.1585,175.5731,81.7872,278.3297,0,U,65496,999,4363,.5367406E-3,.15579E-3,0
STARLINK-34455,2025-198F,2026-06-16T04:43:25.338720,15.34395941,.0001238,53.1569,171.9058,98.1480,261.9663,0,U,65497,999,4372,.58963E-3,.19595E-3,0
STARLINK-35203,2025-198G,2026-06-16T04:00:01.998720,15.33577690,.0000871,53.1577,173.8225,73.8022,298.8804,0,U,65498,999,570,-.61307E-3,-.20498E-3,0
STARLINK-35166,2025-198H,2026-06-16T04:00:01.998720,15.34388338,.0001878,53.1595,173.8114,95.0982,281.3858,0,U,65499,999,570,-.53449E-3,-.18385E-3,0
STARLINK-35207,2025-198J,2026-06-16T04:00:01.998720,15.33538561,.0001903,53.1600,173.6935,79.0739,356.1918,0,U,65500,999,591,-.16282E-3,-.5722E-4,0
STARLINK-35140,2025-198K,2026-06-16T04:16:09.587136,15.34407905,.0001292,53.1559,171.7897,107.1749,252.9395,0,U,65501,999,4372,.45423E-3,.15005E-3,0
STARLINK-35114,2025-198L,2026-06-15T08:51:20.610720,15.34372378,.00017634,53.1576,175.9866,96.8806,263.2397,0,U,65502,999,4359,.75330556E-3,.25139E-3,0
STARLINK-35126,2025-198M,2026-06-15T18:13:31.328832,15.30199548,.00014359,53.1581,175.5696,70.2171,289.8985,0,U,65503,999,4363,.4732815E-3,.13684E-3,0
STARLINK-35182,2025-198N,2026-06-16T03:42:57.348288,15.34400190,.0001426,53.1575,172.3509,124.4059,235.7078,0,U,65504,999,4371,.50336E-3,.16669E-3,0
STARLINK-35072,2025-198P,2026-06-16T04:28:16.528224,15.34402588,.0001654,53.1569,171.8367,64.4684,295.6490,0,U,65505,999,4372,.56495E-3,.18761E-3,0
STARLINK-35184,2025-198Q,2026-06-16T04:49:28.786368,15.34398722,.0001381,53.1589,171.9256,119.5294,240.5846,0,U,65506,999,4372,.48341E-3,.15991E-3,0
STARLINK-35163,2025-198R,2026-06-16T03:55:46.445664,15.30678222,.0013099,53.1578,173.8254,77.3601,282.8864,0,U,65507,999,4369,.47957E-2,.146992E-2,0
STARLINK-35119,2025-198S,2026-06-16T03:52:02.567712,15.34401512,.0001244,53.1575,172.3950,93.2099,266.9046,0,U,65508,999,4371,.53184E-3,.17636E-3,0
STARLINK-35168,2025-198T,2026-06-15T05:34:39.656352,15.34399544,.0002152,53.1583,176.5533,136.0816,224.0358,0,U,65509,999,4357,.56074E-3,.18616E-3,0
STARLINK-35122,2025-198U,2026-06-16T04:25:14.802240,15.34388102,.0001044,53.1568,171.8244,97.2433,262.8689,0,U,65510,999,4372,.51543E-3,.17072E-3,0
STARLINK-35124,2025-198V,2026-06-16T04:07:05.484000,15.34385797,.0001146,53.1555,171.7476,107.6262,252.4866,0,U,65511,999,4371,.55305E-3,.18347E-3,0
STARLINK-35149,2025-198W,2026-06-15T08:39:13.021632,15.34408362,.00014992,53.1583,175.9263,80.9978,279.1194,0,U,65512,999,4359,.46627329E-3,.15414E-3,0
STARLINK-35019,2025-198X,2026-06-15T18:11:05.424288,15.34391123,.00016069,53.1583,174.1396,79.3499,280.7684,0,U,65513,999,4365,.65780383E-3,.21907E-3,0
STARLINK-35026,2025-198Y,2026-06-16T04:00:01.998720,15.34408082,.0000738,53.1587,173.7394,81.0490,330.2828,0,U,65514,999,570,-.63226E-3,-.21682E-3,0
